OBJECT_NAME,OBJECT_ID,EPOCH,MEAN_MOTION,ECCENTRICITY,INCLINATION,RA_OF_ASC_NODE,ARG_OF_PERICENTER,MEAN_ANOMALY,EPHEMERIS_TYPE,CLASSIFICATION_TYPE,NORAD_CAT_ID,ELEMENT_SET_NO,REV_AT_EPOCH,BSTAR,MEAN_MOTION_DOT,MEAN_MOTION_DDOT
STARLINK-31708,2024-065U,2026-06-16T04:32:24.652608,15.30192964,.0001074,53.1599,183.9019,75.6873,284.4247,0,U,59439,999,12401,.25375E-4,.392E-5,0
STARLINK-31693,2024-065W,2026-06-13T14:25:21.228096,15.31142701,.0001758,53.1592,196.1873,114.0457,246.0728,0,U,59441,999,12361,.39429E-2,.121865E-2,0
STARLINK-31622,2024-068B,2026-06-15T18:59:41.654976,15.27570445,.00009634,43.0005,200.7064,271.5557,88.5184,0,U,59456,999,12352,-.9095548E-5,-.512E-5,0
STARLINK-31319,2024-068C,2026-06-15T18:25:14.126304,15.27577664,.00014478,43.0031,197.0658,267.8509,92.2177,0,U,59457,999,12356,.10841434E-3,.2722E-4,0
STARLINK-31625,2024-068D,2026-06-15T18:44:53.483712,15.27563756,.00018565,42.9934,200.6214,284.1525,75.9120,0,U,59458,999,12352,-.52757659E-4,-.1713E-4,0
STARLINK-31631,2024-068E,2026-06-15T08:39:56.269152,15.27573490,.00017724,43.0053,199.1794,278.0367,82.0284,0,U,59459,999,12350,-.868739E-5,-.501E-5,0
STARLINK-31620,2024-068F,2026-06-15T18:36:20.039616,15.27572431,.00011287,42.9990,197.1246,264.6639,95.4084,0,U,59460,999,12356,-.11334049E-4,-.574E-5,0
STARLINK-31511,2024-068H,2026-06-15T18:54:08.548416,15.27564690,.00015076,43.0041,200.6748,282.3223,77.7459,0,U,59462,999,12352,.56228587E-4,.1285E-4,0
STARLINK-31364,2024-068J,2026-06-15T08:51:02.238624,15.27578085,.00010793,42.9995,199.2316,264.7994,95.2734,0,U,59463,999,12350,.24312134E-4,.407E-5,0
STARLINK-31597,2024-068K,2026-06-14T19:06:58.929696,15.27577191,.00014452,42.9981,206.1332,273.9122,86.1564,0,U,59464,999,12332,.2474298E-5,-.194E-5,0
STARLINK-31621,2024-068L,2026-06-15T09:23:38.986080,15.27579684,.00011466,43.0032,202.8686,283.7336,76.3388,0,U,59465,999,12346,-.42614601E-4,-.1434E-4,0
STARLINK-31462,2024-068M,2026-06-15T09:03:17.531136,15.27563596,.00011818,42.9936,202.7337,266.2958,93.7758,0,U,59466,999,12346,-.96592665E-4,-.2917E-4,0
STARLINK-31592,2024-068N,2026-06-15T19:05:16.340928,15.27464132,.00014025,43.0002,200.7347,116.0952,244.0044,0,U,59467,999,12352,.81017623E-3,.2202E-3,0
STARLINK-31267,2024-068P,2026-06-15T18:49:04.117152,15.27575286,.0001319,42.9968,196.3144,276.3383,83.7318,0,U,59468,999,12357,.79794795E-4,.1934E-4,0
STARLINK-31381,2024-068Q,2026-06-15T09:22:29.428032,15.27578000,.00009995,43.0027,199.3954,280.9132,79.1607,0,U,59469,999,12350,.17457981E-4,.218E-5,0
STARLINK-31546,2024-068R,2026-06-15T08:54:45.211104,15.27574091,.00028719,43.0010,199.2545,279.9239,80.1289,0,U,59470,999,12350,.17683619E-4,.224E-5,0
STARLINK-31575,2024-068S,2026-06-15T18:30:46.781856,15.27577974,.00013102,43.0005,197.0911,278.7944,81.2760,0,U,59471,999,12356,.68863136E-4,.1633E-4,0
STARLINK-31610,2024-068U,2026-06-15T08:52:10.033248,15.27591159,.00018854,43.0046,202.6970,279.2661,80.7978,0,U,59473,999,12346,.74055827E-4,.1777E-4,0
STARLINK-31581,2024-068V,2026-06-15T18:16:40.586304,15.27548075,.00006795,42.9993,193.5415,275.6809,84.3965,0,U,59474,999,12360,.19341414E-3,.5059E-4,0
STARLINK-31566,2024-068W,2026-06-14T09:25:23.166336,15.27579103,.00012254,43.0016,208.2594,263.5337,96.5375,0,U,59475,999,12331,.12279103E-4,.76E-6,0
STARLINK-31515,2024-068X,2026-06-14T09:36:29.713824,15.27580916,.00014122,43.0001,208.3177,280.6048,79.4644,0,U,59476,999,12331,.2662269E-4,.471E-5,0
STARLINK-31531,2024-068Y,2026-06-15T16:06:30.205152,15.27577083,.00012852,43.0068,146.0110,221.9662,138.1091,0,U,59477,999,12413,-.30514243E-4,-.1102E-4,0
STARLINK-31753,2024-071A,2026-06-16T05:16:48.941760,15.27568969,.0000857,43.0057,143.3743,264.9032,95.1722,0,U,59484,999,12327,-.31827E-5,-.349E-5,0
STARLINK-31733,2024-071C,2026-06-15T16:00:58.703904,15.27576578,.00014201,43.0077,146.1071,263.9221,96.1469,0,U,59486,999,12319,-.18006488E-4,-.758E-5,0
STARLINK-31657,2024-071D,2026-06-16T04:58:17.404032,15.27575177,.0001588,43.0015,143.2772,272.3945,87.6725,0,U,59487,999,12327,.1261E-4,.85E-6,0
STARLINK-31754,2024-071E,2026-06-14T07:13:36.996096,15.27584137,.0001536,43.0054,161.7030,279.3504,80.7174,0,U,59488,999,12289,.80743E-4,.196E-4,0
STARLINK-31638,2024-071F,2026-06-16T04:56:26.323008,15.27578708,.0001887,43.0150,143.2720,288.4649,71.5997,0,U,59489,999,12327,.34E-4,.673E-5,0
STARLINK-31670,2024-071G,2026-06-15T16:50:54.718080,15.27576450,.00027357,43.0133,157.6373,279.2874,80.7669,0,U,59490,999,12306,.12781814E-4,.89E-6,0
STARLINK-31712,2024-071H,2026-06-15T16:52:45.690240,15.27578070,.00021796,43.0069,157.6240,276.1157,83.9446,0,U,59491,999,12306,.27579451E-4,.496E-5,0
STARLINK-31684,2024-071J,2026-06-15T16:16:26.804064,15.27588675,.00026105,43.0051,153.9739,266.4673,93.5880,0,U,59492,999,12310,.90490438E-4,.2229E-4,0
