STARLINK-31708          
1 59439U 24065U   26167.18917422  .00000392  00000+0  25375-4 0  9992
2 59439  53.1599 183.9019 0001074  75.6873 284.4247 15.30192964124012
STARLINK-31693          
1 59441U 24065W   26164.60094014  .00121865  00000+0  39429-2 0  9994
2 59441  53.1592 196.1873 0001758 114.0457 246.0728 15.31142701123615
STARLINK-31622          
1 59456U 24068B   26166.79145434 -.00000512  00000+0 -90955-5 0  9999
2 59456  43.0005 200.7064 0000963 271.5557  88.5184 15.27570445123529
STARLINK-31319          
1 59457U 24068C   26166.76752461  .00002722  00000+0  10841-3 0  9998
2 59457  43.0031 197.0658 0001447 267.8509  92.2177 15.27577664123567
STARLINK-31625          
1 59458U 24068D   26166.78117458 -.00001713  00000+0 -52758-4 0  9997
2 59458  42.9934 200.6214 0001856 284.1525  75.9120 15.27563756123520
STARLINK-31631          
1 59459U 24068E   26166.36106793 -.00000501  00000+0 -86874-5 0  9993
2 59459  43.0053 199.1794 0001772 278.0367  82.0284 15.27573490123507
STARLINK-31620          
1 59460U 24068F   26166.77523194 -.00000574  00000+0 -11334-4 0  9996
2 59460  42.9990 197.1246 0001128 264.6639  95.4084 15.27572431123561
STARLINK-31511          
1 59462U 24068H   26166.78759894  .00001285  00000+0  56229-4 0  9997
2 59462  43.0041 200.6748 0001507 282.3223  77.7459 15.27564690123529
STARLINK-31364          
1 59463U 24068J   26166.36877591  .00000407  00000+0  24312-4 0  9990
2 59463  42.9995 199.2316 0001079 264.7994  95.2734 15.27578085123505
STARLINK-31597          
1 59464U 24068K   26165.79651539 -.00000194  00000+0  24743-5 0  9992
2 59464  42.9981 206.1332 0001445 273.9122  86.1564 15.27577191123326
STARLINK-31621          
1 59465U 24068L   26166.39142345 -.00001434  00000+0 -42615-4 0  9996
2 59465  43.0032 202.8686 0001146 283.7336  76.3388 15.27579684123464
STARLINK-31462          
1 59466U 24068M   26166.37728624 -.00002917  00000+0 -96593-4 0  9996
2 59466  42.9936 202.7337 0001181 266.2958  93.7758 15.27563596123462
STARLINK-31592          
1 59467U 24068N   26166.79532802  .00022020  00000+0  81018-3 0  9994
2 59467  43.0002 200.7347 0001402 116.0952 244.0044 15.27464132123522
STARLINK-31267          
1 59468U 24068P   26166.78407543  .00001934  00000+0  79795-4 0  9998
2 59468  42.9968 196.3144 0001319 276.3383  83.7318 15.27575286123572
STARLINK-31381          
1 59469U 24068Q   26166.39061838  .00000218  00000+0  17458-4 0  9991
2 59469  43.0027 199.3954 0000999 280.9132  79.1607 15.27578000123509
STARLINK-31546          
1 59470U 24068R   26166.37135661  .00000224  00000+0  17684-4 0  9995
2 59470  43.0010 199.2545 0002871 279.9239  80.1289 15.27574091123509
STARLINK-31575          
1 59471U 24068S   26166.77137479  .00001633  00000+0  68863-4 0  9999
2 59471  43.0005 197.0911 0001310 278.7944  81.2760 15.27577974123569
STARLINK-31610          
1 59473U 24068U   26166.36956057  .00001777  00000+0  74056-4 0  9997
2 59473  43.0046 202.6970 0001885 279.2661  80.7978 15.27591159123468
STARLINK-31581          
1 59474U 24068V   26166.76158086  .00005059  00000+0  19341-3 0  9990
2 59474  42.9993 193.5415 0000679 275.6809  84.3965 15.27548075123605
STARLINK-31566          
1 59475U 24068W   26165.39262924  .00000076  00000+0  12279-4 0  9994
2 59475  43.0016 208.2594 0001225 263.5337  96.5375 15.27579103123310
STARLINK-31515          
1 59476U 24068X   26165.40034391  .00000471  00000+0  26623-4 0  9999
2 59476  43.0001 208.3177 0001412 280.6048  79.4644 15.27580916123313
STARLINK-31531          
1 59477U 24068Y   26166.67118293 -.00001102  00000+0 -30514-4 0  9992
2 59477  43.0068 146.0110 0001285 221.9662 138.1091 15.27577083124131
STARLINK-31753          
1 59484U 24071A   26167.22001090 -.00000349  00000+0 -31827-5 0  9993
2 59484  43.0057 143.3743 0000857 264.9032  95.1722 15.27568969123271
STARLINK-31733          
1 59486U 24071C   26166.66734611 -.00000758  00000+0 -18006-4 0  9991
2 59486  43.0077 146.1071 0001420 263.9221  96.1469 15.27576578123191
STARLINK-31657          
1 59487U 24071D   26167.20714588  .00000085  00000+0  12610-4 0  9990
2 59487  43.0015 143.2772 0001588 272.3945  87.6725 15.27575177123275
STARLINK-31754          
1 59488U 24071E   26165.30112264  .00001960  00000+0  80743-4 0  9998
2 59488  43.0054 161.7030 0001536 279.3504  80.7174 15.27584137122897
STARLINK-31638          
1 59489U 24071F   26167.20586022  .00000673  00000+0  34000-4 0  9992
2 59489  43.0150 143.2720 0001887 288.4649  71.5997 15.27578708123277
STARLINK-31670          
1 59490U 24071G   26166.70202220  .00000089  00000+0  12782-4 0  9997
2 59490  43.0133 157.6373 0002735 279.2874  80.7669 15.27576450123061
STARLINK-31712          
1 59491U 24071H   26166.70330660  .00000496  00000+0  27579-4 0  9990
2 59491  43.0069 157.6240 0002179 276.1157  83.9446 15.27578070123063
STARLINK-31684          
1 59492U 24071J   26166.67808801  .00002229  00000+0  90490-4 0  9992
2 59492  43.0051 153.9739 0002610 266.4673  93.5880 15.27588675123108
